NORAD_CAT_ID,OBJECT_NAME,OBJECT_TYPE,EPOCH,MEAN_MOTION,ECCENTRICITY,INCLINATION,RA_OF_ASC_NODE,ARG_OF_PERICENTER,MEAN_ANOMALY,BSTAR,MEAN_MOTION_DOT,MEAN_MOTION_DDOT,TLE_LINE0,TLE_LINE1,TLE_LINE2,SEMIMAJOR_AXIS,PERIOD,APOGEE,PERIGEE,DECAYED
55302.0,STARLINK-5321,PAYLOAD,2024-02-04 18:29:07,14.98334363,0.0002714,70.001,150.4777,260.279,99.8062,4.1595e-05,4.03e-06,0.0,0 STARLINK-5321,1 55302U 23010AK  24035.77022172  .00000403  00000-0  41595-4 0  9998,2 55302  70.0010 150.4777 0002714 260.2790  99.8062 14.98334363 58849,6950.179,96.107,573.931,570.158,0.0
55302.0,STARLINK-5321,PAYLOAD,2024-02-05 12:06:36,14.98328209,0.000256,70.0012,148.6258,252.8661,107.2218,-1.0862e-05,-2.23e-06,0.0,0 STARLINK-5321,1 55302U 23010AK  24036.50458553 -.00000223  00000-0 -10862-4 0  9991,2 55302  70.0012 148.6258 0002560 252.8661 107.2218 14.98328209 58644,6950.198,96.107,573.843,570.284,0.0
55302.0,STARLINK-5321,PAYLOAD,2024-02-05 13:42:44,14.98325346,0.000273,70.0007,148.4558,264.9744,95.1103,5.2076e-05,5.28e-06,0.0,0 STARLINK-5321,1 55302U 23010AK  24036.57134588  .00000528  00000-0  52076-4 0  9996,2 55302  70.0007 148.4558 0002730 264.9744  95.1103 14.98325346 58966,6950.207,96.107,573.97,570.175,0.0
55302.0,STARLINK-5321,PAYLOAD,2024-02-05 16:55:00,14.9832914,0.0002649,70.0009,148.119,259.6895,100.3966,2.495e-06,-6.3e-07,0.0,0 STARLINK-5321,1 55302U 23010AK  24036.70486460 -.00000063  00000-0  24950-5 0  9996,2 55302  70.0009 148.1190 0002649 259.6895 100.3966 14.98329140 58988,6950.196,96.107,573.902,570.219,0.0
55302.0,STARLINK-5321,PAYLOAD,2024-02-06 13:44:45,14.98328796,0.0002982,70.0006,145.9328,268.5102,91.5715,-5.4214e-05,-7.4e-06,0.0,0 STARLINK-5321,1 55302U 23010AK  24037.57274615 -.00000740  00000-0 -54214-4 0  9997,2 55302  70.0006 145.9328 0002982 268.5102  91.5715 14.98328796 59118,6950.197,96.107,574.134,569.989,0.0
55302.0,STARLINK-5321,PAYLOAD,2024-02-06 16:57:00,14.98333842,0.000267,70.0015,145.5978,250.7702,109.3169,6.6617e-06,-1.3e-07,0.0,0 STARLINK-5321,1 55302U 23010AK  24037.70626008 -.00000013  00000-0  66617-5 0  9992,2 55302  70.0015 145.5978 0002670 250.7702 109.3169 14.98333842 58824,6950.181,96.107,573.902,570.19,0.0
55302.0,STARLINK-5321,PAYLOAD,2024-02-07 13:46:46,14.98329201,0.000298,70.0009,143.4103,270.1427,89.939,-1.6546e-05,-2.9e-06,0.0,0 STARLINK-5321,1 55302U 23010AK  24038.57414369 -.00000290  00000-0 -16546-4 0  9996,2 55302  70.0009 143.4103 0002980 270.1427  89.9390 14.98329201 59260,6950.195,96.107,574.132,569.989,0.0
55302.0,STARLINK-5321,PAYLOAD,2024-02-07 16:59:02,14.9833438,0.0003008,70.0011,143.0739,268.4308,91.6506,-0.00011775,-1.498e-05,0.0,0 STARLINK-5321,1 55302U 23010AK  24038.70766263 -.00001498  00000-0 -11775-3 0  9993,2 55302  70.0011 143.0739 0003008 268.4308  91.6506 14.98334380 58974,6950.179,96.107,574.135,569.954,0.0
55302.0,STARLINK-5321,PAYLOAD,2024-02-08 13:48:46,14.98333032,0.0002841,70.0008,140.8856,262.353,97.7307,3.4356e-05,3.17e-06,0.0,0 STARLINK-5321,1 55302U 23010AK  24039.57554016  .00000317  00000-0  34356-4 0  9998,2 55302  70.0008 140.8856 0002841 262.3530  97.7307 14.98333032 59418,6950.184,96.107,574.023,570.074,0.0
55302.0,STARLINK-5321,PAYLOAD,2024-02-08 17:01:02,14.98333363,0.0002995,70.0008,140.5489,268.0143,92.0673,7.099e-05,7.54e-06,0.0,0 STARLINK-5321,1 55302U 23010AK  24039.70905860  .00000754  00000-0  70990-4 0  9999,2 55302  70.0008 140.5489 0002995 268.0143  92.0673 14.98333363 59129,6950.182,96.107,574.129,569.966,0.0
55302.0,STARLINK-5321,PAYLOAD,2024-02-09 13:50:47,14.98328947,0.0002822,70.001,138.3603,262.8147,97.2691,4.7058e-05,4.69e-06,0.0,0 STARLINK-5321,1 55302U 23010AK  24040.57694053  .00000469  00000-0  47058-4 0  9997,2 55302  70.0010 138.3603 0002822 262.8147  97.2691 14.98328947 59567,6950.196,96.107,574.022,570.1,0.0
55302.0,STARLINK-5321,PAYLOAD,2024-02-09 17:03:03,14.98326837,0.0002846,70.0009,138.0231,263.0646,97.019,0.00014006,1.578e-05,0.0,0 STARLINK-5321,1 55302U 23010AK  24040.71045949  .00001578  00000-0  14006-3 0  9995,2 55302  70.0009 138.0231 0002846 263.0646  97.0190 14.98326837 59278,6950.203,96.107,574.046,570.09,0.0
55302.0,STARLINK-5321,PAYLOAD,2024-02-10 12:16:41,14.98326246,0.0002806,70.0008,136.0026,262.1457,97.9383,-0.00010533,-1.349e-05,0.0,0 STARLINK-5321,1 55302U 23010AK  24041.51158706 -.00001349  00000-0 -10533-3 0  9999,2 55302  70.0008 136.0026 0002806 262.1457  97.9383 14.98326246 59393,6950.204,96.107,574.02,570.119,0.0
55302.0,STARLINK-5321,PAYLOAD,2024-02-10 13:52:49,14.9832385,0.0002826,70.001,135.8342,264.5525,95.5312,-7.4434e-05,-9.81e-06,0.0,0 STARLINK-5321,1 55302U 23010AK  24041.57834793 -.00000981  00000-0 -74434-4 0  9994,2 55302  70.0010 135.8342 0002826 264.5525  95.5312 14.98323850 59718,6950.212,96.107,574.041,570.113,0.0
55302.0,STARLINK-5321,PAYLOAD,2024-02-10 15:28:57,14.98326083,0.0002785,70.0008,135.666,262.2645,97.8198,-9.8629e-05,-1.269e-05,0.0,0 STARLINK-5321,1 55302U 23010AK  24041.64510731 -.00001269  00000-0 -98629-4 0  9997,2 55302  70.0008 135.6660 0002785 262.2645  97.8198 14.98326083 59727,6950.205,96.107,574.006,570.134,0.0
55302.0,STARLINK-5321,PAYLOAD,2024-02-11 12:18:41,14.9833165,0.0002745,70.0008,133.4778,257.267,102.8183,9.1553e-06,1.6e-07,0.0,0 STARLINK-5321,1 55302U 23010AK  24042.51298091  .00000016  00000-0  91553-5 0  9993,2 55302  70.0008 133.4778 0002745 257.2670 102.8183 14.98331650 59548,6950.188,96.107,573.961,570.145,0.0
55302.0,STARLINK-5321,PAYLOAD,2024-02-11 13:54:49,14.9833392,0.0002703,70.0008,133.3094,256.5718,103.514,3.8359e-05,3.65e-06,0.0,0 STARLINK-5321,1 55302U 23010AK  24042.57973847  .00000365  00000-0  38359-4 0  9999,2 55302  70.0008 133.3094 0002703 256.5718 103.5140 14.98333920 59865,6950.181,96.107,573.924,570.167,0.0
55302.0,STARLINK-5321,PAYLOAD,2024-02-11 15:30:57,14.98335367,0.0002695,70.0009,133.1412,256.557,103.5289,5.3941e-05,5.51e-06,0.0,0 STARLINK-5321,1 55302U 23010AK  24042.64649695  .00000551  00000-0  53941-4 0  9999,2 55302  70.0009 133.1412 0002695 256.5570 103.5289 14.98335367 59876,6950.176,96.107,573.914,570.168,0.0
55302.0,STARLINK-5321,PAYLOAD,2024-02-12 12:20:42,14.98330667,0.0002701,70.0009,130.9533,254.8868,105.1992,0.00010634,1.176e-05,0.0,0 STARLINK-5321,1 55302U 23010AK  24043.51437667  .00001176  00000-0  10634-3 0  9995,2 55302  70.0009 130.9533 0002701 254.8868 105.1992 14.98330667 59691,6950.191,96.107,573.933,570.179,0.0
55302.0,STARLINK-5321,PAYLOAD,2024-02-12 13:56:49,14.98333796,0.000265,70.001,130.7853,252.4667,107.6203,0.00014288,1.612e-05,0.0,0 STARLINK-5321,1 55302U 23010AK  24043.58113336  .00001612  00000-0  14288-3 0  9990,2 55302  70.0010 130.7853 0002650 252.4667 107.6203 14.98333796 60016,6950.181,96.107,573.888,570.204,0.0
55302.0,STARLINK-5321,PAYLOAD,2024-02-12 15:32:57,14.98334927,0.0002645,70.0011,130.6173,251.9166,108.1705,0.00015287,1.732e-05,0.0,0 STARLINK-5321,1 55302U 23010AK  24043.64789214  .00001732  00000-0  15287-3 0  9994,2 55302  70.0011 130.6173 0002645 251.9166 108.1705 14.98334927 60024,6950.178,96.107,573.881,570.204,0.0
55302.0,STARLINK-5321,PAYLOAD,2024-02-13 12:22:43,14.98326292,0.0002981,70.0001,128.4292,262.5776,97.5044,-0.00011601,-1.477e-05,0.0,0 STARLINK-5321,1 55302U 23010AK  24044.51578465 -.00001477  00000-0 -11601-3 0  9999,2 55302  70.0001 128.4292 0002981 262.5776  97.5044 14.98326292 59849,6950.204,96.107,574.141,569.998,0.0
55302.0,STARLINK-5321,PAYLOAD,2024-02-13 13:58:51,14.9832711,0.0002932,70.0002,128.2609,261.9258,98.1569,-9.9116e-05,-1.275e-05,0.0,0 STARLINK-5321,1 55302U 23010AK  24044.58254394 -.00001275  00000-0 -99116-4 0  9992,2 55302  70.0002 128.2609 0002932 261.9258  98.1569 14.98327110 60160,6950.202,96.107,574.105,570.029,0.0
55302.0,STARLINK-5321,PAYLOAD,2024-02-13 15:34:59,14.98327754,0.0003002,70.0,128.0925,264.5581,95.5236,-9.836e-05,-1.266e-05,0.0,0 STARLINK-5321,1 55302U 23010AK  24044.64930353 -.00001266  00000-0 -98360-4 0  9995,2 55302  70.0000 128.0925 0003002 264.5581  95.5236 14.98327754 60171,6950.2,96.107,574.151,569.978,0.0
55302.0,STARLINK-5321,PAYLOAD,2024-02-14 04:24:04,14.98331602,0.0003065,69.9996,126.7447,269.1178,90.963,-5.2112e-05,-7.15e-06,0.0,0 STARLINK-5321,1 55302U 23010AK  24045.18338029 -.00000715  00000-0 -52112-4 0  9990,2 55302  69.9996 126.7447 0003065 269.1178  90.9630 14.98331602 59945,6950.188,96.107,574.183,569.923,0.0
55302.0,STARLINK-5321,PAYLOAD,2024-02-14 14:00:51,14.98341788,0.0002919,69.9998,125.7346,265.2267,94.8559,6.7734e-05,7.16e-06,0.0,0 STARLINK-5321,1 55302U 23010AK  24045.58392890  .00000716  00000-0  67734-4 0  9995,2 55302  69.9998 125.7346 0002919 265.2267  94.8559 14.98341788 60319,6950.156,96.106,574.05,569.993,0.0
55302.0,STARLINK-5321,PAYLOAD,2024-02-14 15:36:59,14.9834406,0.0002899,69.9998,125.5666,263.9818,96.101,6.2889e-05,6.58e-06,0.0,0 STARLINK-5321,1 55302U 23010AK  24045.65068699  .00000658  00000-0  62889-4 0  9991,2 55302  69.9998 125.5666 0002899 263.9818  96.1010 14.98344060 60016,6950.149,96.106,574.029,570.0,0.0
55302.0,STARLINK-5321,PAYLOAD,2024-02-14 22:01:32,14.98334218,0.0002256,70.0014,124.8924,272.9956,87.0945,-9.3031e-05,-1.203e-05,0.0,0 STARLINK-5321,1 55302U 23010AK  24045.91773790 -.00001203  00000-0 -93031-4 0  9997,2 55302  70.0014 124.8924 0002256 272.9956  87.0945 14.98334218 60365,6950.18,96.107,573.613,570.477,0.0
55302.0,STARLINK-5321,PAYLOAD,2024-02-15 04:26:05,14.98304144,0.0002203,70.0024,124.2183,255.3026,104.7889,0.0003943,4.612e-05,0.0,0 STARLINK-5321,1 55302U 23010AK  24046.18478051  .00004612  00000-0  39430-3 0  9996,2 55302  70.0024 124.2183 0002203 255.3026 104.7889 14.98304144 60091,6950.273,96.109,573.669,570.607,0.0
55302.0,STARLINK-5321,PAYLOAD,2024-02-15 14:02:53,14.98319244,0.000273,70.001,123.211,256.006,104.0795,-1.0617e-05,-2.2e-06,0.0,0 STARLINK-5321,1 55302U 23010AK  24046.58534649 -.00000220  00000-0 -10617-4 0  9996,2 55302  70.0010 123.2110 0002730 256.0060 104.0795 14.98319244 60463,6950.226,96.108,573.989,570.194,0.0
